{
  "norad_id": 45146,
  "name": "ONEWEB-0039",
  "history": [
    {
      "epoch": "2026-03-28T21:08:21.017184Z",
      "apogee_km": 1222.907963132624,
      "perigee_km": 1220.5126432596035,
      "latitude_deg": -7.115377968010053e-05,
      "longitude_deg": -91.13486505979367,
      "height_km": 1224.733126804583,
      "semi_major_axis_km": 7599.847303196114,
      "eccentricity": 0.00015759,
      "inclination_deg": 87.8817,
      "raan_deg": 52.2476,
      "arg_perigee_deg": 96.6053,
      "mean_anomaly_deg": 263.5253,
      "mean_motion_rev_day": 13.10374588
    },
    {
      "epoch": "2026-03-29T04:28:10.113024Z",
      "apogee_km": 1222.9116631983152,
      "perigee_km": 1220.5070718076377,
      "latitude_deg": -3.720973081352338e-05,
      "longitude_deg": 158.54872533308813,
      "height_km": 1224.734592922886,
      "semi_major_axis_km": 7599.846367502976,
      "eccentricity": 0.0001582,
      "inclination_deg": 87.8818,
      "raan_deg": 52.1868,
      "arg_perigee_deg": 96.6956,
      "mean_anomaly_deg": 263.4351,
      "mean_motion_rev_day": 13.1037483
    },
    {
      "epoch": "2026-03-30T04:17:34.324800Z",
      "apogee_km": 1222.8861129563911,
      "perigee_km": 1220.545358313816,
      "latitude_deg": -2.1995247581668585e-05,
      "longitude_deg": 160.0222521627832,
      "height_km": 1224.7569976636473,
      "semi_major_axis_km": 7599.852735635103,
      "eccentricity": 0.000154,
      "inclination_deg": 87.8817,
      "raan_deg": 51.9896,
      "arg_perigee_deg": 97.6668,
      "mean_anomaly_deg": 262.4634,
      "mean_motion_rev_day": 13.10373183
    },
    {
      "epoch": "2026-03-30T09:47:26.153376Z",
      "apogee_km": 1222.8865728146593,
      "perigee_km": 1220.5449061885638,
      "latitude_deg": -2.5557502129261313e-05,
      "longitude_deg": 77.28491614167817,
      "height_km": 1224.758689538238,
      "semi_major_axis_km": 7599.852739501611,
      "eccentricity": 0.00015406,
      "inclination_deg": 87.8818,
      "raan_deg": 51.944,
      "arg_perigee_deg": 97.7471,
      "mean_anomaly_deg": 262.3831,
      "mean_motion_rev_day": 13.10373182
    },
    {
      "epoch": "2026-03-30T20:47:09.815712Z",
      "apogee_km": 1222.9018266596986,
      "perigee_km": 1220.5297606057502,
      "latitude_deg": 4.997890838199156e-05,
      "longitude_deg": -88.18977451793062,
      "height_km": 1224.7618808525592,
      "semi_major_axis_km": 7599.852793632725,
      "eccentricity": 0.00015606,
      "inclination_deg": 87.8819,
      "raan_deg": 51.8528,
      "arg_perigee_deg": 97.8023,
      "mean_anomaly_deg": 262.3282,
      "mean_motion_rev_day": 13.10373168
    },
    {
      "epoch": "2026-03-31T20:36:34.358400Z",
      "apogee_km": 1222.908057882276,
      "perigee_km": 1220.5217043916,
      "latitude_deg": 4.199264506566689e-05,
      "longitude_deg": -86.71823037671882,
      "height_km": 1224.7613318820347,
      "semi_major_axis_km": 7599.851881136938,
      "eccentricity": 0.000157,
      "inclination_deg": 87.8817,
      "raan_deg": 51.655,
      "arg_perigee_deg": 97.7737,
      "mean_anomaly_deg": 262.3569,
      "mean_motion_rev_day": 13.10373404
    }
  ]
}